name,address,phone,website,latitude,longitude,url_status
Manhattan Bakery,100 Jerusalem Dr # 108 Morrisville NC 27560,(919) 463-0005,https://www.manhattanbakerync.com,35.85086633,-78.82658017,Accessible
Duck Donuts,100 Wrenn Dr # 101 Cary NC 27511,(919) 468-8722,https://www.duckdonuts.com,35.76489241,-78.7835168,Accessible
Karen Donatelli Cake Designs,1000 Hendersonville Rd Asheville NC 28803,(828) 225-5751,https://www.karendonatellicakedesigns.com,35.53824061,-82.53037125,Accessible
Mr A's Beignets LLC,1006 River Dee Ct Apex NC 27502,(919) 000-1111,https://www.squaredoughnuts.com,35.74144581,-78.88105879,Accessible
Godino's Bakery,1007 Nc Highway 150 W # A Summerfield NC 27358,(336) 298-7452,https://www.godinosbakery.com,36.19972981,-79.8476473,Accessible
K & S Cakes,101 Marion Ct Jacksonville NC 28546,(910) 265-6779,https://www.kandscakes.com,34.77129393,-77.40649469,Accessible
Sweet Palette,101 Person St E Fayetteville NC 28301,(910) 489-7342,https://www.thesweetpalette.com,35.0525223,-78.87798052,Accessible
Crumbl Cookies,10109 Northcross Ctr Ct # 130 Huntersville NC 28078,(704) 274-3480,https://www.crumblcookies.com,35.44331275,-80.85974881,Accessible
Crumbl Cookies,1011 S Main St # A Kernersville NC 27284,(336) 515-0062,https://www.crumblcookies.com,36.10849024,-80.09609175,Accessible
Miel Bon Bons,1011 W Main St Durham NC 27701,(919) 360-3332,https://www.mielbonbons.com,36.00067724,-78.91042397,Accessible
Hey Hey Cupcake!,102 W State St Black Mountain NC 28711,(828) 669-2253,https://www.heyheycupcake.com,35.6176692,-82.3209723,Accessible
Duck Donuts,1025 Rockford St # 400 Mt Airy NC 27030,(336) 648-8898,https://www.duckdonuts.com,36.48631911,-80.61170651,Accessible
Cake & All Things Yummy,103 E Mountain St Kernersville NC 27284,(336) 310-4504,https://www.cakeandallthingsyummy.com,36.11980277,-80.07311872,Accessible
Two Scoops Creamery Mcdnvll,103 Main St Mcadenville NC 28101,(704) 879-4223,https://www.twoscoopscreamerymcadenville.com,35.26092338,-81.07314479,Accessible
Crumbl Cookies,1039 Hanes Mall Blvd Winston Salem NC 27103,(336) 448-4794,https://www.crumblcookies.com,36.06627408,-80.31626713,Accessible
Insomnia Cookies,1040 S College Rd Wilmington NC 28403,(910) 370-8326,https://www.insomniacookies.com,34.21631545,-77.8858305,Accessible
C Cups Cupcakery,105 Cherokee Rd # 1E Pinehurst NC 28374,(910) 621-3299,https://www.theccupscupcakery.com,35.19237483,-79.47106006,Accessible
Peppered Cupcake,105 S Front St Wilmington NC 28401,(910) 399-1088,https://www.thepepperedcupcake.com,34.23386328,-77.94848047,Accessible
Icing & the Cake,105 Singleton Rd # 103 Mooresville NC 28117,(704) 663-0399,https://www.theicingandthecake.com,35.58757376,-80.87618025,Accessible
Sweets By Shayda,105 W Morgan St Durham NC 27701,(919) 454-4015,https://www.sweetsbyshayda.com,35.99762778,-78.89862179,Accessible
Burney's Sweets & More,106 Martin Luther King Elizabethtown NC 28337,(910) 862-2099,https://www.burneyssweetsandmore.com,34.62926508,-78.60747316,Accessible
Blue Collie Coffee,106 N Main St Louisburg NC 27549,(919) 400-9240,https://www.bluecolliecoffee.com,36.10027888,-78.29997699,Accessible
Martinho's Bakery & Deli,106 W Clay St Mebane NC 27302,(919) 563-8606,https://www.singlepage.com,36.09711984,-79.26774465,Accessible
Asali Desserts,107 Edinburgh Dr # 106-A Cary NC 27511,(919) 362-7882,https://www.asalievents.com,35.74029651,-78.79818271,Accessible
Baked Cookies & Dough,107 Edinburgh South Dr # 115 Cary NC 27511,(919) 377-0058,https://www.mixeddesserts.com,35.73744027,-78.8001865,Accessible
My Local Bakery LLC,109 N Sterling St Morganton NC 28655,(828) 432-7343,https://www.mylocalbakery.com,35.74523,-81.6874369,Accessible
Great Harvest Bread,110 Matthews Station St # 1D Matthews NC 28105,(980) 262-3090,https://www.greatharvest.com,35.11742554,-80.72069255,Accessible
Emma's Bakery LLC,110 S Brightleaf Blvd Smithfield NC 27577,(919) 205-1056,https://www.johnstoncountync.org,35.50801421,-78.33987976,Accessible
Crumbl Cookies,1105 Market Center Dr Morrisville NC 27560,(919) 364-1100,https://www.crumblcookies.com,35.8076463,-78.8142513,Accessible
Insomnia Cookies,1105 W Main St Durham NC 27701,(919) 364-3321,https://www.insomniacookies.com,36.00134734,-78.91150239,Accessible
Mckee Foods,111 Margaret Little Dr Kings Mountain NC 28086,(423) 238-7111,https://www.mckeefoods.com,35.22138421,-81.41399845,Accessible
Jp's Pastry,111 S Railroad St Benson NC 27504,(919) 894-5000,https://www.jpspastry.com,35.3808082,-78.54796146,Accessible
Loaf Bakery,111 W Parrish St Durham NC 27701,(919) 797-1254,https://www.loafdurham.com,35.99568987,-78.90055026,Accessible
Suarez Bakery & Barra,1115 N Brevard St # 4 Charlotte NC 28206,(980) 273-1788,https://www.suarezbakeryandbarra.com,35.23255913,-80.82880644,Accessible
Peach Cobbler Factory,1116 Eastchester Dr # 102 High Point NC 27265,(336) 803-4062,https://www.peachcobblerfactory.com,35.99146293,-79.99964801,Accessible
Frosted Bliss Cakes,1119 Ivy Ln Cary NC 27511,(919) 210-9698,https://www.frostedblisscakes.com,35.77231188,-78.75626414,Accessible
Cakes By B's Blue House Bakery,113 E Main St Jamestown NC 27282,(336) 307-4653,https://www.cakesbybsbluehousebakery.com,35.99429972,-79.93564278,Accessible
American Dream Cakes,1130 Western Blvd Jacksonville NC 28546,(910) 346-2347,https://www.americandreamcakes.com,34.7823,-77.396379,Accessible
Smallcakes Cupcakery,1132 Parkside Main St Cary NC 27519,(919) 388-2253,https://www.smallcakescupcakery.com,35.84677951,-78.88789338,Accessible
Miranda's Sweet Addictions,1137 Jeffreys Rd Rocky Mount NC 27804,(252) 366-1830,https://www.mirandassweetaddictions.com,35.98142846,-77.80121844,Accessible
Big Boss Baking Co,114 Saint Andrews Dr High Point NC 27265,(336) 862-2677,https://www.archdale-nc.gov,35.97603873,-80.08112723,Accessible
Brecotea,1144 Kildaire Farm Rd Cary NC 27511,(919) 234-1555,https://www.brecotea.com,35.76647769,-78.78293154,Accessible
Once In A Blue Moon Bakery,115 W Chatham St # G Cary NC 27511,(919) 319-6554,https://www.bluemoonbakery.com,35.78722432,-78.78176901,Accessible
Northern Lights Bakery,1159 Austin St # 109A Corolla NC 27927,(252) 453-0201,https://www.mhme.nu,36.3725968,-75.82754147,Accessible
Insomnia Cookies,116 E 5th St Greenville NC 27858,(864) 362-2696,https://www.insomniacookies.com,35.61090058,-77.37187011,Accessible
Crumbl Cookies,116 S Sharon Amity Rd Charlotte NC 28211,(704) 444-0765,https://www.crumblcookies.com,35.17588553,-80.79861674,Accessible
Sweet Creations,117 Dragon Fly Ln State Road NC 28676,(336) 874-2067,https://www.totallyedible.com,36.3451394,-80.87460772,Accessible
Strong Arm Baking,117 Main St Oxford NC 27565,(919) 339-4350,https://www.strongarmbaking.com,36.31163885,-78.58839183,Accessible
Donut Shop Red,117 N Main St Lexington NC 27292,(336) 300-7280,https://www.reddonutshop.com,35.82469112,-80.25243648,Accessible
Cookies N Creme,117 N Pilot Knob Rd Denver NC 28037,(704) 820-2855,https://www.cookiesncremenc.com,35.44342666,-80.99011637,Accessible
Duck Donuts,11703 Eastchester Dr High Point NC 27265,(336) 804-5571,https://www.duckdonuts.com,36.0019465,-79.99181215,Accessible
Tullio's Bakery,1187 Duck Rd Kitty Hawk NC 27949,(252) 261-7112,https://www.tulliosbakery.com,36.16246673,-75.75264238,Accessible
Two Scoops Creamery-Mrsvll,119 Landings Dr # 104 Mooresville NC 28117,(980) 444-3800,https://www.twoscoopscreamerymooresville.com,35.52784075,-80.86832925,Accessible
Duck Donuts,1190 Duck Rd Duck NC 27949,(252) 480-3304,https://www.duckdonuts.com,36.16320644,-75.75282249,Accessible
Sweetheart Baking Co,120 Langtree Village Dr Mooresville NC 28117,(704) 450-4706,https://www.sweetheartbaking.com,35.52835591,-80.86665011,Accessible
Bake House Inc,120 N Poplar St Aberdeen NC 28315,(910) 944-9204,https://www.thebakehouseofaberdeen.com,35.13366831,-79.42723306,Accessible
Cake Me Away Bakery,120 W Trade St Dallas NC 28034,(704) 860-5135,https://www.cakemeawaybakery.com,35.31660864,-81.17615881,Accessible
Burney's Sweets & More,1200 N Davidson St Charlotte NC 28206,(980) 819-9949,https://www.burneyssweetsandmore.com,35.23227879,-80.82475328,Accessible
Southerly Biscuit & Pie,1206 Lake Park Blvd N # D Carolina Beach NC 28428,(910) 707-0776,https://www.thesoutherlync.com,34.04497902,-77.89838753,Accessible
Rise Above Bakehouse,1207 Charlotte Hwy Fairview NC 28730,(828) 222-2600,https://www.riseabovebakehouse.com,35.5247545,-82.42299481,Accessible
Box Turtle Bakery,121 Circadian Way Chapel Hill NC 27516,(919) 357-6034,https://www.boxturtlebakery.com,35.93726487,-79.09754574,Accessible
Daylight Projects LLC,121 W Margaret Ln # D Hillsborough NC 27278,(919) 619-9943,https://www.daylightbooks.org,36.07444857,-79.0996684,Accessible
Donutz On A Stick,1216 Duck Rd Duck NC 27949,(252) 261-0484,https://www.donutzonastick.net,36.16745675,-75.75498654,Accessible
Aj's Cheesecakes,1216 Midland Ter Durham NC 27704,(984) 308-2510,https://www.ajscheesecakes.net,36.01287455,-78.86188683,Accessible
Crumbl Cookies,1218 Bridford Pkwy # A Greensboro NC 27407,(336) 316-6599,https://www.crumblcookies.com,36.05849649,-79.90324733,Accessible
Panaderia Pasteleria Y,1220 N Fayetteville St Asheboro NC 27203,(336) 636-5550,https://www.panaderiapiccadilly.com,35.72648398,-79.80880727,Accessible
Great Harvest Bread,1220 NW Maynard Rd Cary NC 27513,(919) 460-8158,https://www.greatharvest.com,35.78405085,-78.80988746,Accessible
Savor the Moment,124 N Davie St Greensboro NC 27401,(336) 688-5094,https://www.savorthemomentbakery.com,36.07269121,-79.78898914,Accessible
Winde Jackson Cakes,1272 Independence Dr Rocky Mount NC 27804,(252) 446-2253,https://www.windejacksoncakes.com,35.97064488,-77.804472,Accessible
Insomnia Cookies,128 Appalachian St # A Boone NC 28607,(828) 970-1437,https://www.insomniacookies.com,36.2173961,-81.68225003,Accessible
Britt's Donut Shop,13 Boardwalk Carolina Beach NC 28428,(910) 707-0755,https://www.brittsdonutshop.com,34.03409736,-77.8917468,Accessible
Dolce & Amaro Artisan Bakery,1310 Westover Ter # 110 Greensboro NC 27408,(336) 763-4349,https://www.dolceamaroartisanbakery.com,36.0899004,-79.81368082,Accessible
Crumbl Cookies,133 W Franklin St # 150 Chapel Hill NC 27516,(984) 261-2222,https://www.crumblcookies.com,35.91223299,-79.05805884,Accessible
Main Street Cake,1345 S Church St Burlington NC 27215,(336) 261-8725,https://www.mainstreetcake.com,36.08638488,-79.45244091,Accessible
Carolina Pie Co,136 Stutts Rd Mooresville NC 28117,(704) 660-5200,https://www.carolinapie.com,35.56592563,-80.90261713,Accessible
Amorino Raleigh-Excellence,137 E Davie St Raleigh NC 27601,(919) 239-4411,https://www.amorino.com,35.77559743,-78.63774145,Accessible
Queen City Pastry,137 Speedway Ln Mooresville NC 28117,(704) 660-5706,https://www.queencitypastry.com,35.60448229,-80.8505063,Accessible
Amazin Glazin Sweet Treats,1376 Martin Gourd Rd Clarkton NC 28433,(910) 770-9266,https://www.amazinglazinsweettreats.com,34.51446447,-78.60552754,Accessible
Smallcakes Cupcakery,13855 Conlan Cir # G Charlotte NC 28277,(980) 819-7756,https://www.smallcakescupcakery.com,35.05769912,-80.85096192,Accessible
True Blue Butcher & Baker,13865 US Highway 17 Hampstead NC 28443,(910) 319-0695,https://www.wearetrueblue.com,34.35777531,-77.72142849,Accessible
Crumbl Cookies,139 Huffman Mill Rd # No103 Burlington NC 27215,(336) 278-1501,https://www.crumblcookies.com,36.07952774,-79.48401323,Accessible
Anchored-Sweet Treats-Savory,139 Moore Ave Mt Airy NC 27030,(336) 705-3449,https://www.anchoredbakerymtairy.com,36.50113447,-80.60760676,Accessible
Batchmaker,1429 Bryant St Charlotte NC 28208,(704) 000-1111,https://www.thebatchmaker.com,35.22786925,-80.86580145,Accessible
Nothing Bundt Cakes,1437 Military Cutoff Rd Wilmington NC 28403,(910) 679-8797,https://www.nothingbundtcakes.com,34.22533225,-77.82990357,Accessible
Insomnia Cookies,145 E Franklin St Chapel Hill NC 27514,(919) 336-0637,https://www.insomniacookies.com,35.91378252,-79.05429157,Accessible
Crumbl Cookies,145 Grand Hill Pl Holly Springs NC 27540,(919) 355-8909,https://www.crumblcookies.com,35.66426289,-78.84713867,Accessible
Nothing Bundt Cakes,1461 University Dr # A Burlington NC 27215,(336) 915-4030,https://www.nothingbundtcakes.com,36.06727769,-79.51848567,Accessible
Ava's Cupcakes,1483 River Ridge Dr Clemmons NC 27012,(336) 283-9021,https://www.avascupcakes.com,36.07437311,-80.39091345,Accessible
Baker's Box,1508 Asheville Hwy Hendersonville NC 28791,(828) 595-9983,https://www.thebakersbox.net,35.32974095,-82.46850483,Accessible
Great American Cookies,1509 Central Ave Charlotte NC 28205,(980) 875-9228,https://www.greatamericancookies.com,35.22044397,-80.81325979,Accessible
Miss Angels Heavenly Pies,153 N Main St Mt Airy NC 27030,(336) 786-1537,https://www.missangelsheavenlypiesinc.com,36.49998224,-80.6074789,Accessible
Sweet Meg's,1577 New Garden Rd # C Greensboro NC 27410,(336) 299-0642,https://www.sweetmegs.net,36.11260132,-79.8806743,Accessible
Tastykake,1603 Burkemont Ave Morganton NC 28655,(828) 437-0525,https://www.tastykake.com,35.70977053,-81.70347953,Accessible
La Dolcezza Bakery Cafe,1607 Montford Dr Charlotte NC 28209,(980) 938-5143,https://www.ladolcekcabakerycafe.com,35.17068983,-80.84960637,Accessible
Two Scoops Creamery Southend,1616 Camden Rd # 100 Charlotte NC 28203,(980) 237-2149,https://www.twoscoopscreamerysouthendnc.com,35.2145348,-80.85723775,Accessible
Flowers Baking Co of Newton,1633 Fisher Ct Newton NC 28658,(828) 695-6000,https://www.flowersfoods.com,35.64452494,-81.20199016,Accessible
MRS Vingerber's Sweets,164 Longwood Dr Stella NC 28582,(910) 326-3997,https://www.mrsvingerbersweets.com,34.73466062,-77.14206495,Accessible
Southern Supreme Nutty,1699 Hoyt Scott Rd Bear Creek NC 27207,(336) 581-3141,https://www.southernsupreme.com,35.53677978,-79.4637585,Accessible
Karan's Cakes & Cafe Pharr,170 River Hill Rd Statesville NC 28625,(704) 873-8980,https://www.karenscakesandcafe.com,35.81089918,-80.80744784,Accessible
Southern Sweetees,1705 Briar Lake Rd Winston Salem NC 27103,(336) 978-2336,https://www.southernsweetees.com,36.04175226,-80.33580133,Accessible
Duck Donuts,1710 Kenilworth Ave # 220 Charlotte NC 28203,(704) 910-5355,https://www.duckdonuts.com,35.20277114,-80.84404629,Accessible
Duck Donuts,1716 N Croatan Hwy Kill Devil Hills NC 27948,(252) 480-3320,https://www.duckdonuts.com,36.03895524,-75.6760445,Accessible
Great Harvest Bread,1721 E Ash St Goldsboro NC 27530,(919) 288-2401,https://www.greatharvest.com,35.37850176,-77.97034415,Accessible
Wildflour Bakery & Cafe,173 E Main St # 1 Saluda NC 28773,(828) 749-9224,https://www.wildflourbakerync.com,35.23566948,-82.34572203,Accessible
Down For Doughnuts,173 Fontanelle Dr Mooresville NC 28115,(704) 724-6877,https://www.downfordoughnuts.com,35.58180705,-80.7865306,Accessible
Guglhupf Bakery & Patisserie,1800 E Franklin St Chapel Hill NC 27514,(919) 401-2600,https://www.guglhupf.com,35.93742288,-79.02505962,Accessible
Crumbl Cookies,1816 Hendersonville Rd # 10 Asheville NC 28803,(828) 417-0696,https://www.crumblcookies.com,35.50578308,-82.52486304,Accessible
Duck Donuts,182 Merrimon Ave # 20 Asheville NC 28801,(828) 575-2177,https://www.duckdonuts.com,35.60524605,-82.55314045,Accessible
Great Harvest Bread,1824 E Arbors Dr # 390 Charlotte NC 28262,(704) 971-7280,https://www.greatharvest.com,35.33631651,-80.75375212,Accessible
Nothing Bundt Cakes,1838 Hendersonville Rd # A-102 Asheville NC 28803,(828) 417-3548,https://www.nothingbundtcakes.com,35.50322284,-82.52382442,Accessible
Daylight Donuts,1849 E Broad St Statesville NC 28625,(704) 883-1083,https://www.daylightdonuts.com,35.79074094,-80.85675068,Accessible
Bun Appetit!,188 N Trade St Matthews NC 28105,(704) 258-1340,https://www.bunsyall.com,35.11680219,-80.72153123,Accessible
Daylight Donuts,1896 S Main St Waynesville NC 28786,(828) 246-6161,https://www.daylightdonuts.com,35.46810997,-83.00511799,Accessible
La Dolce Vita Bakery Inc,191 Everett St Bryson City NC 28713,(828) 488-5888,https://www.dolcebryson.com,35.42962828,-83.44671501,Accessible
Crumbl Cookies,1915 N Main St # 107 High Point NC 27262,(336) 802-1374,https://www.crumblcookies.com,35.98062445,-80.02185008,Accessible
Spring Garden Bakery-Cffhs,1932 Spring Garden St Greensboro NC 27403,(336) 272-8199,https://www.springgardenbakery.com,36.06386085,-79.82464065,Accessible
Great Harvest Bread,19901 S Main St Cornelius NC 28031,(980) 689-5444,https://www.greatharvest.com,35.47998864,-80.85739643,Accessible
Main Street Bakery & Coffee,19905 W Catawba Ave # 105 Cornelius NC 28031,(704) 897-1717,https://www.bakery28.com,35.48132634,-80.8857652,Accessible
Waterbean Coffee,1995 Startown Rd # 201 Hickory NC 28602,(828) 855-1226,https://www.waterbean.coffee,35.69551709,-81.28989179,Accessible
Sugar Grinders Creamery-Bakery,2 S Main St Franklinton NC 27525,(919) 494-2995,https://www.sugargrinders.net,36.10432516,-78.45631302,Accessible
Caffe At Luminosa,20 Battery Park Ave # 101 Asheville NC 28801,(828) 271-9808,https://www.ashevilleflatiron.com,35.595146,-82.55504631,Accessible
Panaderia Pahuatlan Bakery,2000 Avondale Dr # P Durham NC 27704,(919) 220-7019,https://www.bakerydurham.com,36.01519148,-78.88813646,Accessible
Sunflour Baking Co,2001 E 7th St Charlotte NC 28204,(704) 900-5268,https://www.sunflourbakingcompany.com,35.21222782,-80.81778276,Accessible
Nothing Bundt Cakes,2008 Market Center Dr # 17130 Morrisville NC 27560,(919) 694-5300,https://www.nothingbundtcakes.com,35.80759358,-78.81519035,Accessible
Sweet Shoppe Bakery Inc,2008 N Centennial St High Point NC 27262,(336) 882-8026,https://www.thesweetshoppebakery.com,35.98810884,-80.00031774,Accessible
Open Hearts Place,201 Shady Rest Rd Morganton NC 28655,(828) 430-0417,https://www.openheartsplace.org,35.72821317,-81.6704686,Accessible
Depalo's Bakery,2010 Oaks Pkwy Belmont NC 28012,(704) 827-0245,https://www.depalofoods.com,35.26606102,-81.05483417,Accessible
Nothing Bundt Cakes,2040 Freeman Park Dr # 110 Charlotte NC 28273,(704) 626-1060,https://www.nothingbundtcakes.com,35.21274996,-80.8202388,Accessible
Mindv's Baked Goods,205 Friendly Rd Morehead City NC 28557,(252) 222-0273,https://www.friendlymarketnc.com,34.72870891,-76.76843428,Accessible
Gigi's Cupcakes,205 S Stratford Rd # I Winston Salem NC 27103,(336) 721-1515,https://www.gigiscupcakesusa.com,36.09305817,-80.27984789,Accessible
Virtuoso Breadworks,205 Salem St Waxhaw NC 28173,(704) 256-3753,https://www.virtuosobreadworks.com,34.923867,-80.73994158,Accessible
Sugar Island Bakery,206C N Topsail Dr Surf City NC 28445,(910) 254-1110,https://www.sugarislandnc.com,34.42753048,-77.54330677,Accessible
Donut Inn,208 Porters Neck Rd # 130 Wilmington NC 28411,(910) 821-0170,https://www.thedonutinn.com,34.30026989,-77.78895006,Accessible
Goodwood Pizzeria & Bakery,209 N Aspen St Lincolnton NC 28092,(704) 240-4897,https://www.goodwoodpizza.com,35.47236674,-81.25756534,Accessible
Insomnia Cookies,210 E Trade St # B224 Charlotte NC 28202,(704) 981-6559,https://www.insomniacookies.com,35.22607972,-80.84187745,Accessible
Milk Bar,213 N Main St Walnut Cove NC 27052,(336) 591-9262,https://www.themilkbarnc.com,36.29572976,-80.14177728,Accessible
Smallcakes Cupcakery,2132 Skibo Rd # 114 Fayetteville NC 28314,(910) 835-1074,https://www.smallcakescupcakery.com,35.04909926,-78.97532755,Accessible
Duck Donuts,2132 Skibo Rd Fayetteville NC 28314,(910) 487-0386,https://www.duckdonuts.com,35.04909926,-78.97532755,Accessible
Sweet Cherry Bakery LLC,214 Hunter St Apex NC 27502,(919) 524-9132,https://www.sweetcherrybakerync.com,35.73624692,-78.85141279,Accessible
Tias Tasty Treats,220 Cedar Lodge Rd # D Thomasville NC 27360,(762) 436-1923,https://www.tiastastytreats.com,35.85007667,-80.07894839,Accessible
Sunflour Baking Co,220 East Blvd Charlotte NC 28203,(704) 332-5222,https://www.sunflourbakingcompany.com,35.21150854,-80.85748746,Accessible
Honeybear Bake Shop,2200 Thrift Rd Charlotte NC 28208,(704) 000-1111,https://www.honeybearbakeshop.com,35.23411785,-80.87339437,Accessible
Cinnabon,222 Four Seasons Town Ctr Greensboro NC 27407,(336) 895-4872,https://www.cinnabon.com,36.03885072,-79.84012503,Accessible
Chocolate City Bakery,2221 Charles St Durham NC 27707,(919) 493-8295,https://www.thechocolatecity.com,35.96593701,-78.92245535,Accessible
Cookie People,2237 Avent Ferry Rd # 103 Raleigh NC 27606,(919) 916-5229,https://www.thecookiepeople.net,35.77872025,-78.67712819,Accessible
Short Street Cakes,225 Haywood Rd Asheville NC 28806,(828) 505-4822,https://www.shortstreetcakes.com,35.57961775,-82.57457888,Accessible
Baked Downtown,227 S Elm St Greensboro NC 27401,(336) 370-6439,https://www.bakedgso.com,36.071142,-79.790316,Accessible
Table Bakery On Elm LLC,227 S Elm St Greensboro NC 27401,(336) 542-0395,https://www.thetableasheboro.com,36.071142,-79.790316,Accessible
Great Harvest Bread,229 S Elliott Rd Chapel Hill NC 27514,(919) 904-7292,https://www.greatharvest.com,35.93606642,-79.03234155,Accessible
Short Street Cakes,23 Short St Asheville NC 28801,(828) 236-9462,https://www.shortstreetcakes.com,35.59796602,-82.55969015,Accessible
Insomnia Cookies,2302 Hillsborough St Raleigh NC 27607,(919) 759-6572,https://www.insomniacookies.com,35.78726448,-78.66601732,Accessible
Well-Bred Bakery & Cafe Inc,232 Reems Creek Rd # 3 Weaverville NC 28787,(828) 645-9300,https://www.wellbredbakery.com,35.68641122,-82.55074774,Accessible
Sweet D's Cuisine,2321 S 17th St Wilmington NC 28401,(910) 523-5024,https://www.sweetdscuisine.com,34.20052804,-77.92240833,Accessible
Pauline Tea-Bar Apothecary,2326 Arty Ave Charlotte NC 28208,(704) 999-2537,https://www.thepaulineteabar.com,35.22477395,-80.87811009,Accessible
Nothing Bundt Cakes,2355 US Highway 70 SE Hickory NC 28602,(828) 382-8344,https://www.nothingbundtcakes.com,35.72229562,-81.37960934,Accessible
Wow Factor Cakes,2400 Park Rd # I Charlotte NC 28203,(704) 654-0598,https://www.charlotteweddingcakes.com,35.19844915,-80.85196626,Accessible
Maxie B'S,2403 Battleground Ave # 7 Greensboro NC 27408,(336) 288-9811,https://www.maxieb.com,36.1026259,-79.82403604,Accessible
Duck Donuts,2414 Wycliff Rd # 101 Raleigh NC 27607,(919) 750-8045,https://www.duckdonuts.com,35.81742624,-78.69367705,Accessible
Amlie's French Bakery & Cafe,2424 N Davidson St # 102 Charlotte NC 28205,(704) 376-1781,https://www.ameliesfrenchbakery.com,35.24124816,-80.81290935,Accessible
Superior Bakery,2433 Hope Mills Rd Fayetteville NC 28304,(910) 424-4242,https://www.superiorbakerync.com,35.00956431,-78.96660352,Accessible
Sassy Cakes Bakery LLC,245 Town Centre Dr Locust NC 28097,(704) 000-1111,https://www.sassycakesbakery.com,35.25948264,-80.43291903,Accessible
Augustino Gusto Artisan Bakery,2508 New Garden Rd E Greensboro NC 27455,(336) 740-7005,https://www.augustinogustobakery.com,36.13414844,-79.83180604,Accessible
Vicente Bakery & Bistro,2520 South Blvd # 108-B Charlotte NC 28203,(828) 000-1111,https://www.vicentebistro.com,35.20333682,-80.86463488,Accessible
Well-Bred Bakery & Cafe,26 N Main St Weaverville NC 28787,(828) 645-9300,https://www.wellbredbakery.com,35.69955483,-82.56057265,Accessible
Donut World,2613 W Gate City Blvd Greensboro NC 27403,(336) 292-4101,https://www.mydonutworld.com,36.05383598,-79.83213929,Accessible
Dewey's Bakery,262 S Stratford Rd Winston Salem NC 27103,(336) 725-8321,https://www.deweys.com,36.09186949,-80.28134856,Accessible
Crumbl Cookies,2629 Lawndale Dr Greensboro NC 27408,(336) 298-2728,https://www.crumblcookies.com,36.10271109,-79.81915893,Accessible
Mickey's Pastry Shop,2704 Graves Dr Goldsboro NC 27534,(919) 759-4741,https://www.mickeyspastry.com,35.37270982,-77.949019,Accessible
Guglhupf Bakery Cafe-Brgrtn,2706 Durham Chapel Hill Blvd Durham NC 27707,(919) 401-2600,https://www.guglhupf.com,35.97404252,-78.93208412,Accessible
Fancy Flour Baking,2755 Soco Rd Maggie Valley NC 28751,(828) 356-5403,https://www.fancyflourbakingcompany.com,35.5118516,-83.07486337,Accessible
Sweet Dough,2758 Nc-68 N High Point NC 27265,(336) 781-0991,https://www.sweetdoughbakeshop.com,36.0402038,-79.96201045,Accessible
Duck Donuts,2766 Highway 68 N # 101 High Point NC 27265,(336) 697-6179,https://www.duckdonuts.com,36.04101895,-79.96202744,Accessible
Happycakes Cupcakery,278 Nc Highway 24 Morehead City NC 28557,(252) 773-0160,https://www.thehappycakescupcakery.com,34.73411996,-76.80940299,Accessible
Sinfully Delicious Cstm Bakery,28 W 2nd Ave Lexington NC 27292,(336) 236-2253,https://www.sinfully-delicious.com,35.82351069,-80.25525535,Accessible
Great Harvest Bread,2803 Evans St # 100 Greenville NC 27834,(252) 689-6012,https://www.greatharvest.com,35.58429549,-77.37982705,Accessible
Crumbl Cookies,2815 Rogers Rd # 101 Wake Forest NC 27587,(919) 263-0584,https://www.crumblcookies.com,35.95344915,-78.52652978,Accessible
Salem Baking Co,2820 Reynolda Rd Winston Salem NC 27106,(336) 748-0230,https://www.salembaking.com,36.14365894,-80.29911404,Accessible
Nothing Bundt Cakes,2844 W Highway 74 Monroe NC 28110,(704) 635-6346,https://www.nothingbundtcakes.com,35.02047507,-80.57778768,Accessible
Varee Asian Cafe & Bakery,2861 Raleigh Road Pkwy W Wilson NC 27896,(252) 281-5932,https://www.vareewilson.com,35.73920825,-77.95777315,Accessible
Nothing Bundt Cakes,287 Williamson Rd # H Mooresville NC 28117,(980) 946-6949,https://www.nothingbundtcakes.com,35.58495199,-80.87380685,Accessible
Carolina's Cupcakes,288 US Highway 70 W Havelock NC 28532,(252) 652-6001,https://www.carolinascupcakes.com,34.87618141,-76.9037787,Accessible
All Good Things Bakery,289 S Trade St # A Tryon NC 28782,(828) 440-1018,https://www.allgoodthingsbakery.com,35.20514277,-82.23735854,Accessible
Chance of Sprinkles Bake Shop,29 Logan St # E Marion NC 28752,(828) 559-2161,https://www.chanceofsprinklesbakeshop.com,35.6828005,-82.00987495,Accessible
Edible Art Cake Shop,2908 Selwyn Ave Charlotte NC 28209,(704) 342-2253,https://www.edibleartclt.com,35.17361989,-80.84035915,Accessible
Smallcakes Cupcakery,2916 N Center St Hickory NC 28601,(828) 855-2253,https://www.smallcakescupcakery.com,35.76999372,-81.33012445,Accessible
Great American Cookies,3 S Tunnel Rd # B-3 Asheville NC 28805,(828) 298-2849,https://www.greatamericancookies.com,35.58334469,-82.52591681,Accessible
Canvas Cake Studio,300 Jonestown Rd # 1 Winston Salem NC 27104,(336) 955-2004,https://www.thecanvascakestudio.com,36.07601308,-80.33597924,Accessible
Farm House Cafe & Bakery,301 Raleigh St Newton Grove NC 28366,(910) 000-1111,https://www.farmhousecafebakery.com,35.24586567,-78.35641188,Accessible
Sari Sari Bakery,301 W Main St Carrboro NC 27510,(919) 525-5640,https://www.sarisaribakery.com,35.91164394,-79.07713017,Accessible
Daybreak Donuts,303 S Topsail Dr Surf City NC 28445,(910) 541-0133,https://www.fracturedprune.com,34.42495369,-77.54815986,Accessible
Crumbl Cookies,3040 Evans St # 101C Greenville NC 27834,(252) 597-9336,https://www.crumblcookies.com,35.57950105,-77.38124327,Accessible
Annelores German Bakery,308 W Chatham St Apex NC 27502,(919) 267-6846,https://www.anneloresbakery.com,35.73191023,-78.85448497,Accessible
Mcfarlan Bake Shop,309 N Main St Hendersonville NC 28792,(828) 693-4256,https://www.mcfarlanbakery.com,35.31596282,-82.46013067,Accessible
Carter's Baking Co,31 N Main St Wendell NC 27591,(919) 626-0176,https://www.cartersbakingco.com,35.78133706,-78.36990966,Accessible
Albemarle Sweet Shop,310 S 2nd St Albemarle NC 28001,(704) 982-1235,https://www.albemarlesweetshop.com,35.34822621,-80.19825269,Accessible
Camino Bakery,310 W 4th St # B Winston Salem NC 27101,(336) 721-9990,https://www.caminobakery.com,36.09809165,-80.24717246,Accessible
Crumbl Cookies,311 S College Rd # 110 Wilmington NC 28403,(910) 679-6615,https://www.crumblcookies.com,34.23708836,-77.87218072,Accessible
Crumbl Cookies,3116 Raeford Rd # 240 Fayetteville NC 28303,(910) 635-3999,https://www.crumbl.com,35.0445707,-78.93347601,Accessible
Crumbl Cookies,3125 E Franklin Blvd # 105 Gastonia NC 28056,(704) 228-1230,https://www.crumblcookies.com,35.25871617,-81.12451618,Accessible
Nothing Bundt Cakes,3125 E Franklin Blvd # 115 Gastonia NC 28056,(980) 745-1200,https://www.nothingbundtcakes.com,35.25871617,-81.12451618,Accessible
Gateaux CAKES & Pastries,315 S Church St Hendersonville NC 28792,(828) 513-1920,https://www.gateauxhvl.com,35.3120624,-82.46055972,Accessible
Icing On the Cake,3154 Walters Rd Creedmoor NC 27522,(215) 747-6751,https://www.sarahsicingonthecake.com,36.11748781,-78.61157163,Accessible
Smallcakes Cupcakery,33 Town Square Blvd # 130 Asheville NC 28803,(828) 676-2711,https://www.smallcakescupcakery.com,35.48613773,-82.55355706,Accessible
Cookie Advantage,330 Ervin Rd Mooresville NC 28117,(704) 775-6350,https://www.cookieadvantagecharlotte.com,35.60456907,-80.88430794,Accessible
Cinnabon,3320 Silas Creek Pkwy # 1148 Winston Salem NC 27103,(336) 765-2788,https://www.cinnabon.com,36.0738523,-80.29876528,Accessible
Mimi's Bistro + Bakery,3322 W Friendly Ave Greensboro NC 27410,(336) 852-7811,https://www.mimiscafe.com,36.08486682,-79.83603223,Accessible
Nothing Bundt Cakes,3334 N Friendly Avenue # 123 Greensboro NC 27410,(336) 515-1690,https://www.nothingbundtcakes.com,36.0849847,-79.83635452,Accessible
Icing On the Edge,3346 Garrett Dr SW Concord NC 28027,(704) 787-8224,https://www.icingontheedge.com,35.3705908,-80.64384625,Accessible
Gigi's Cupcakes,336 S College Rd Wilmington NC 28403,(910) 769-7678,https://www.gigiscupcakesusa.com,34.23287491,-77.87555582,Accessible
Crumbl Cookies,337 S Kings Dr Charlotte NC 28204,(980) 505-8558,https://www.crumblcookies.com,35.21281592,-80.83404248,Accessible
Slice LLC,3409 Campbell Rd Raleigh NC 27606,(919) 000-1111,https://www.slicepiecompany.com,35.7306994,-78.73643874,Accessible
Triangle Bakery LLC,3422 Table Mountain Pine Dr Raleigh NC 27616,(919) 000-1111,https://www.trianglebakery.com,35.9022006,-78.51083988,Accessible
Stick Boy Bread Co,345 Hardin St Boone NC 28607,(828) 268-9900,https://www.stickboybread.com,36.2140516,-81.67511684,Accessible
Silicone Kitchen LLC,345 Sunset Grove Dr Pittsboro NC 27312,(434) 000-1111,https://www.thesiliconekitchen.com,35.75767717,-79.08312535,Accessible
Underground Baking Co LLC,348 7th Ave E Hendersonville NC 28792,(828) 674-7494,https://www.undergroundbaking.com,35.32071753,-82.45780122,Accessible
Duck Donuts,3481 Burke Mill Rd Winston Salem NC 27103,(336) 727-3419,https://www.duckdonuts.com,36.05974206,-80.30985441,Accessible
Sweet Girl Cookies,3500 Latrobe Dr Charlotte NC 28211,(866) 473-3806,https://www.sweetgirlcookies.com,35.19780005,-80.80020216,Accessible
Great American Cookies,3500 Oleander Dr # D022 Wilmington NC 28403,(910) 392-0507,https://www.greatamericancookies.com,34.21631332,-77.9051048,Accessible
Better Together Donut-Coffee,3544 Hwy 64 E Hayesville NC 28904,(828) 544-0174,https://www.bettertogetherdonutcoffeehouse.com,35.03795474,-83.75959536,Accessible
Cup & Saucer,36 E Main St Brevard NC 28712,(828) 884-2877,https://www.cupandsaucernc.com,35.22617776,-82.72818018,Accessible
Dough New York Style Bakery,360 Exchange St NW # 111 Concord NC 28027,(704) 721-0177,https://www.doughnc.com,35.41540442,-80.66910947,Accessible
FOR ELEGANCE CTRG & CKS LLC,3601 Village Rd Rocky Mount NC 27804,(252) 451-1681,https://www.forelegance.com,35.97692784,-77.87568903,Accessible
MRS Pumpkins,3645 Reynolda Rd # B Winston Salem NC 27106,(336) 924-9797,https://www.mrspumpkins.com,36.1587909,-80.31961968,Accessible
Loffredo's Ristorante,37 Union St N # A1 Concord NC 28025,(828) 000-1111,https://www.loffredosristorante.com,35.41129852,-80.58230234,Accessible
Delicious Bakery,3700 Lawndale Dr Greensboro NC 27455,(336) 282-1377,https://www.delicious-cakes.com,36.11771255,-79.82817057,Accessible
Confectionate Cakes,3708 Benson Dr # 100A Raleigh NC 27609,(919) 612-1761,https://www.confectionatecakes.com,35.83364592,-78.61949089,Accessible
Crumbl Cookies,3709 Battleground Ave # K Greensboro NC 27410,(336) 218-9084,https://www.crumblcookies.com,36.13107694,-79.85546082,Accessible
Amlie's French Bakery & Cafe,380 S College St Charlotte NC 28202,(704) 899-0088,https://www.ameliesfrenchbakery.com,35.22417028,-80.84506522,Accessible
Salem Baking Co,3840 Kimwell Dr Winston Salem NC 27103,(336) 748-0230,https://www.deweys.com,36.04723396,-80.32481688,Accessible
Ritchie Hill Bakery Inc,393 Church St N Concord NC 28025,(704) 785-8773,https://www.ritchiehillbakery.com,35.42113638,-80.59070807,Accessible
Pope Plantation Cakes & Bakery,3980 Anderson Mountain Rd Maiden NC 28650,(828) 962-1931,https://www.popeplantationcakes.com,35.58179327,-81.09616414,Accessible
Baked Pie Co,4 Long Shoals Rd Arden NC 28704,(828) 333-4366,https://www.bakedpiecompany.com,35.48482079,-82.52611346,Accessible
Cafe Carolina & Bakery,401 Daniels St Raleigh NC 27605,(919) 821-7117,https://www.cafecarolina.com,35.7890169,-78.6611676,Accessible
Pop's Bakery,401 E Chapel Hill St Durham NC 27701,(919) 682-6879,https://www.ruecler-durham.com,35.99700818,-78.89984398,Accessible
Duck Donuts,409 Pisgah Church Rd Greensboro NC 27455,(336) 291-8200,https://www.duckdonuts.com,36.1316776,-79.79619243,Accessible
Mediterranean Deli Bakery,410 W Franklin St Chapel Hill NC 27516,(919) 967-2666,https://www.mediterraneandeli.com,35.91118298,-79.06106893,Accessible
Yoder's Dutch Pantry,4102 Nc Highway 118 Grifton NC 28530,(252) 244-1759,https://www.yodersdutchpantry.com,35.34368806,-77.26602181,Accessible
Cinnabon,419 Cross Creek Mall Fayetteville NC 28303,(910) 223-9139,https://www.cinnabon.com,35.0720295,-78.9604601,Accessible
Duck Donuts,420 E Arlington Blvd Greenville NC 27858,(252) 262-2602,https://www.duckdonuts.com,35.58541096,-77.37029242,Accessible
Bestow Baked Goods,4208 Lassiter Rd Holly Springs NC 27540,(919) 762-7116,https://www.bestowbakedgoods.com,35.66309288,-78.79743361,Accessible
Sour Bakery LLC,421 Lacy Nichole Dr Graham NC 27253,(336) 000-1111,https://www.sourbakery.com,35.99148961,-79.38116125,Accessible
Suarez Bakery,4245 Park Rd Charlotte NC 28209,(704) 525-0145,https://www.suarezbakery.com,35.17590676,-80.85095962,Accessible
La Farm Bakery,4248 NW Cary Pkwy Cary NC 27513,(919) 657-0657,https://www.lafarmbakery.com,35.79034651,-78.82700638,Accessible
Insomnia Cookies,425 Tate St Greensboro NC 27403,(336) 652-3307,https://www.insomniacookies.com,36.06775693,-79.80549739,Accessible
Kiss Me Cakes Bakery-Dessert,4251 Legion Rd # 125 Hope Mills NC 28348,(910) 425-6862,https://www.kiss-me-cakes.com,34.98248747,-78.93239372,Accessible
Cake Affect,4305 Old Monroe Rd # K Indian Trail NC 28079,(704) 839-0002,https://www.cakeaffect.com,35.06807494,-80.67864144,Accessible
Amlie's French Bakery & Cafe,4321 Park Rd Charlotte NC 28209,(704) 405-0570,https://www.ameliesfrenchbakery.com,35.1761056,-80.85096894,Accessible
Mrs Field's,4325 Glenwood Ave # 2041 Raleigh NC 27612,(919) 783-5702,https://www.mrsfields.com,35.83889719,-78.67546591,Accessible
Edible Art,4351 the Circle At N # 115 Raleigh NC 27609,(919) 856-0604,https://www.edibleartnc.com,35.83844421,-78.64332819,Accessible
Kats Kreations,443 Holman Rd Todd NC 28684,(352) 262-5465,https://www.katscakekreations.com,36.34032108,-81.54694756,Accessible
Burney's Sweets & More,4500 Falls of Neuse Rd # 100 Raleigh NC 27609,(919) 298-2800,https://www.burneyssweetsandmore.com,35.84261597,-78.61276604,Accessible
Favor Desserts,4520 S Alston Ave Durham NC 27713,(919) 908-9264,https://www.favordesserts.com,35.90278236,-78.88899741,Accessible
Pink Baking Co,4545 Fountain Dr Wilmington NC 28403,(910) 343-4727,https://www.pinkbc.com,34.22307983,-77.8852459,Accessible
Mrs Hanes' Moravian Cookies,4643 Friedberg Church Rd Clemmons NC 27012,(336) 764-1402,https://www.hanescookies.com,35.97652607,-80.3223799,Accessible
Stay Sweet Bakery & Ice Cream,469 Buck Swamp Rd Goldsboro NC 27530,(919) 000-1111,https://www.staysweetbakery.com,35.44435268,-78.00882462,Accessible
Sweet Coast Cakes,4700 Virginia Dare Trl N Kitty Hawk NC 27949,(252) 573-8137,https://www.sweetcoastcakes.com,36.08753527,-75.70362452,Accessible
Smallcakes Cupcakery,4711 Hope Valley Rd # 4D Durham NC 27707,(919) 937-2922,https://www.smallcakescupcakery.com,35.92223719,-78.95717246,Accessible
Orange Blossom Bakery & Cafe,47206 Highway 12 Buxton NC 27920,(252) 995-4109,https://www.orangeblossombakery.com,35.26545431,-75.52918189,Accessible
Bent Willow Baking Co,473 E Palmer St Franklin NC 28734,(828) 634-4104,https://www.bentwillowbaking.com,35.18238644,-83.3775822,Accessible
Nothing Bundt Cakes,473 Olde Waterford Way # 11511 Belville NC 28451,(910) 756-5023,https://www.nothingbundtcakes.com,34.21759163,-78.02034299,Accessible
Sam's Club Bakery,4798 Summit Square Blvd Winston Salem NC 27105,(336) 377-2686,https://www.samsclub.com,36.18733234,-80.27390032,Accessible
Daylight Donuts,482 River Hwy # A1 Mooresville NC 28117,(704) 663-0482,https://www.daylightdonuts.com,35.59482576,-80.86636457,Accessible
La Recette Patisserie,4823 Meadow Dr # 115 Durham NC 27713,(984) 888-0542,https://www.larecettepatisserie.com,35.8985628,-78.89493617,Accessible
Smallcakes Cupcakery,4847 Shopton Rd # E Charlotte NC 28278,(980) 237-1897,https://www.smallcakescupcakery.com,35.17271848,-80.96396309,Accessible
Crumbl Cookies,5 Westgate Pkwy # 130 Asheville NC 28806,(828) 365-6543,https://www.crumbl.com,35.5934636,-82.57530591,Accessible
Edible Artistry,500 Ashe St High Point NC 27262,(336) 906-4116,https://www.edibleartistry.com,35.95235353,-80.0270727,Accessible
Captain Cookie,500 E Davie St Raleigh NC 27601,(919) 909-6965,https://www.captaincookienc.com,35.7751649,-78.6321609,Accessible
Farm To Cake Bakery,500 Hazelwood Ave Waynesville NC 28786,(828) 476-9311,https://www.farmtocakebakery.com,35.47815235,-83.00402997,Accessible
Nettie's Bakery,500 Hazelwood Ave Waynesville NC 28786,(828) 000-1111,https://www.nettiesbakerync.com,35.47815235,-83.00402997,Accessible
Piedmont International Bakery,501 Yanceyville St Greensboro NC 27405,(336) 327-7768,https://www.piedmontinternationalbakery.com,36.07831791,-79.7783095,Accessible
Bread & Cafe,503 W Rosemary St Chapel Hill NC 27516,(919) 960-5998,https://www.chapelhillbakery.com,35.91110721,-79.06410311,Accessible
Artist's Way Creations Bakery,508 Main St Danbury NC 27016,(336) 593-2900,https://www.artistswaycreations.com,36.4091822,-80.20589576,Accessible
Gwendy's Goodies,514 Second St Ayden NC 28513,(252) 414-8716,https://www.gwendysgoodies.com,35.47191723,-77.41424191,Accessible
Duck Donuts,5155 Ramsey St Fayetteville NC 28311,(910) 482-0096,https://www.duckdonuts.com,35.13046166,-78.87839443,Accessible
Nothing Bundt Cakes,518 Greenville Blvd SE # K Greenville NC 27858,(252) 408-4070,https://www.nothingbundtcakes.com,35.58251216,-77.37438169,Accessible
Winkler Bakery,521 S Main St Winston Salem NC 27101,(336) 721-7302,https://www.oldsalem.org,36.08867935,-80.24220636,Accessible
Duck Donuts,5230 Virginia Dare Trl N # B Kitty Hawk NC 27949,(252) 261-3312,https://www.duckdonuts.com,36.09843756,-75.71018755,Accessible
Afters Dessert Bar,530 Foster St # 1 Durham NC 27701,(919) 260-5456,https://www.durhamfoodhall.com,36.00074585,-78.90140882,Accessible
Duck Donuts,5320 Mcfarland Rd # 140 Durham NC 27707,(919) 973-1305,https://www.duckdonuts.com,35.95092517,-78.99222895,Accessible
Crumbl Cookies,5385 Virginia Dare Trl N # 4 Southern Shores NC 27949,(252) 573-3366,https://www.crumblcookies.com,36.0990159,-75.71050936,Accessible
Daylight Asheville Inc,54 Echo Lake Dr Fairview NC 28730,(828) 778-0279,https://www.daylightasheville.com,35.5474641,-82.33453141,Accessible
Cinnabon,5404 New Fashion Way Charlotte NC 28278,(704) 503-9992,https://www.cinnabon.com,35.16757072,-80.97195046,Accessible
Golden Grains Bakery,547 Griffith Rd Charlotte NC 28217,(704) 525-6789,https://www.goldengrainsbaking.com,35.15959283,-80.88558564,Accessible
Red's Scratch Made,548 N Main St Mooresville NC 28115,(980) 444-2665,https://www.redsscratchmade.com,35.58651541,-80.80449489,Accessible
Cakes By Jane,55 Monticello Rd Weaverville NC 28787,(828) 285-9292,https://www.cakesbyjane.com,35.71044917,-82.56762553,Accessible
Donut World,5561 W Market St Greensboro NC 27409,(336) 315-0202,https://www.mydonutworld.com,36.07638291,-79.89250753,Accessible
Sweet Cakes Inc,5704 Clarks Fork Dr Raleigh NC 27616,(919) 877-7456,https://www.sweetcakesnc.com,35.89084757,-78.54713973,Accessible
Nothing Bundt Cakes,5824 Samet Dr # 190 High Point NC 27265,(336) 753-5976,https://www.nothingbundtcakes.com,36.02811421,-79.9623464,Accessible
Smallcakes Cupcakery,591 River Hwy # H Mooresville NC 28117,(980) 435-0077,https://www.smallcakescupcakery.com,35.59533161,-80.87132728,Accessible
Coastal K9 Bakery,5941 Carolina Beach Rd # D Wilmington NC 28412,(910) 794-4014,https://www.coastalk9bakery.com,34.12420514,-77.89978568,Accessible
Well-Bred Bakery & Cafe,6 Boston Way Asheville NC 28803,(828) 774-5307,https://www.wellbredbakery.com,35.56634404,-82.54173864,Accessible
City Bakery,60 Biltmore Ave # 250 Asheville NC 28801,(828) 252-4426,https://www.citybakery.net,35.59280846,-82.551003,Accessible
Cafe Carolina & Bakery,601 Meadowmont Village Cir Chapel Hill NC 27517,(919) 945-8811,https://www.cafecarolina.com,35.90578316,-79.01001497,Accessible
Nothing Bundt Cakes,601 S Kings Dr # P Charlotte NC 28204,(704) 909-4577,https://www.nothingbundtcakes.com,35.20994735,-80.83602297,Accessible
Duck Donuts,603 Currituck Clbhs Dr # D Corolla NC 27927,(252) 453-3210,https://www.duckdonuts.com,36.30081212,-75.80807873,Accessible
Franklin Baking Co,607 N Carolina St Goldsboro NC 27530,(919) 735-0344,https://www.flowersfoods.com,35.39056438,-78.00089433,Accessible
Boulted Bread,614 W South St Raleigh NC 27603,(919) 999-3984,https://www.boultedbread.com,35.77248214,-78.6483341,Accessible
Sweetheart Treats,6150 Rogers Rd Rolesville NC 27571,(919) 263-9492,https://www.sweethearttreatsnc.com,35.92330003,-78.46784286,Accessible
Sottoriva America Inc,620 Griffith Rd # C Charlotte NC 28217,(704) 714-5880,https://www.sottoriva.com,35.15956806,-80.88455083,Accessible
Maples,621 Micaville Loop # 100 Burnsville NC 28714,(828) 675-1876,https://www.maplesthesweetspot.com,35.90770945,-82.21632426,Accessible
Patisserie Cafe,627 N Main St Mooresville NC 28115,(704) 799-3355,https://www.patisseriecafe.com,35.58652907,-80.80332115,Accessible
Confection Connection,637 Red Banks Rd Greenville NC 27858,(252) 565-8840,https://www.confectionconnectionnc.com,35.5814992,-77.36995292,Accessible
Great Harvest Bread,6420 Rea Rd # 6 Charlotte NC 28277,(704) 543-5550,https://www.greatharvest.com,35.07966779,-80.81658592,Accessible
Smallcakes Cupcakery,6425 W Wilkinson Blvd # I Belmont NC 28012,(704) 461-8220,https://www.smallcakescupcakery.com,35.25224389,-81.04627683,Accessible
Premier Cakes,6617 Falls of Neuse Rd # 105 Raleigh NC 27615,(919) 703-0095,https://www.premier-cakes.com,35.87332479,-78.62251954,Accessible
Phoenix Bakery,664 West St Pittsboro NC 27312,(919) 542-4452,https://www.thephoenixbakerync.com,35.72069525,-79.18658241,Accessible
Nothing Bundt Cakes,6643 Falls of Neuse Rd Raleigh NC 27615,(919) 838-7270,https://www.nothingbundtcakes.com,35.8739218,-78.62276318,Accessible
Flowers Baking Co,6687 Highway 64-264 Manns Harbor NC 27953,(252) 473-3424,https://www.flowersfoods.com,35.89045427,-75.76599749,Accessible
Nothing Bundt Cakes,678 Saint George Square Ct Winston Salem NC 27103,(336) 306-9146,https://www.nothingbundtcakes.com,36.07083954,-80.33356627,Accessible
Cheesecake Factory Bakery,6792 Corporation Pkwy Battleboro NC 27809,(252) 937-8871,https://www.thecheesecakefactorybakery.com,36.0560617,-77.82192697,Accessible
Northeast Foods Inc,68 Harvest Mill Ln Clayton NC 27520,(919) 585-5178,https://www.nefoods.com,35.61641242,-78.42593944,Accessible
Great American Cookies,6801 Northlake Mall Dr # 192 Charlotte NC 28216,(704) 921-9322,https://www.greatamericancookies.com,35.35379623,-80.85507794,Accessible
Burney's Sweets & More,6801 Parker Farm Dr # 100 Wilmington NC 28405,(910) 679-8033,https://www.burneyssweetsandmore.com,34.23578001,-77.83506648,Accessible
Cinnaholic,6841 Conservation Way Wilmington NC 28405,(910) 769-2930,https://www.cinnaholic.com,34.2436721,-77.83069478,Accessible
Cinnabon,6910 Fayetteville Rd # 252 Durham NC 27713,(919) 908-1128,https://www.cinnabon.com,35.90264167,-78.93927608,Accessible
Sweetcakestbc,7026 Beach Dr SW Ocean Isle Beach NC 28469,(910) 393-7700,https://www.sweetcakestbc.net,33.89855337,-78.47638653,Accessible
Sweet Cakes By Cynthia,7027 Emerald Dr Emerald Isle NC 28594,(252) 240-9962,https://www.sweetcakesbycynthia.com,34.66873227,-77.01396032,Accessible
Rosa Mae's Cafe,709 National Hwy Thomasville NC 27360,(336) 475-3414,https://www.rosamaescafe.com,35.89853053,-80.06761304,Accessible
Mr Sticky's,714 Greenville Blvd SE Greenville NC 27858,(252) 227-0917,https://www.mrstickys.net,35.5865722,-77.36980105,Accessible
Tiff's Treats,7314 Waverly Walk Ave # E3 Charlotte NC 28277,(704) 621-4400,https://www.cookiedelivery.com,35.05251589,-80.76751005,Accessible
Sweet Decadence Bakery,733 Helen St Fayetteville NC 28303,(910) 257-0974,https://www.sweettoothshop.net,35.0927503,-78.92767398,Accessible
Daylight Donuts,7550 Creedmoor Rd # 101 Raleigh NC 27613,(919) 676-7442,https://www.daylightdonuts.com,35.8890803,-78.67965604,Accessible
West End Bakery & Cafe,757 Haywood Rd Asheville NC 28806,(828) 252-9378,https://www.thewestendasheville.com,35.57821548,-82.59369014,Accessible
Daphne's Bakery,7609 Matthews Mint Hill Rd Mint Hill NC 28227,(704) 573-5100,https://www.daphnesbakery.com,35.17725774,-80.6516418,Accessible
Amlie's French Bakery & Cafe,7715 Pineville Matthews Rd Charlotte NC 28226,(704) 376-1782,https://www.ameliesfrenchbakery.com,35.08764115,-80.84962475,Accessible
Cupcrazed,776 Blowing Rock Rd Boone NC 28607,(704) 500-6586,https://www.cupcrazed.com,36.20801082,-81.67256604,Accessible
Crumbl Cookies,7918 Rea Rd # A Charlotte NC 28277,(704) 781-8111,https://www.crumblcookies.com,35.05947343,-80.81262798,Accessible
Local Loaf,800 E 35th St Charlotte NC 28205,(980) 474-1956,https://www.localloafcharlotte.com,35.24470416,-80.80327446,Accessible
Cookies N-Moore,801 SW Broad St Southern Pines NC 28387,(910) 603-6636,https://www.cookiesinmoorecounty.com,35.16732417,-79.40222716,Accessible
El Dorado,801 W Front St Burlington NC 27215,(336) 437-0430,https://www.eldoradocoffee.com,36.09794864,-79.44692607,Accessible
Swanky Sweets,807 W Corbett Ave # 3 Swansboro NC 28584,(910) 325-7981,https://www.swankysweetsbakeshop.com,34.69365556,-77.13123533,Accessible
Burney's Bakery-Ice Cream Shop,808 N Howe St Southport NC 28461,(910) 454-4222,https://www.burneyssweetsandmore.com,33.92689376,-78.02156873,Accessible
Misty's Bakery,809 Randolph St # 2 Thomasville NC 27360,(336) 475-4801,https://www.mistyscakesandhealthyfoods.com,35.8717347,-80.07517754,Accessible
Cinnabon,8111 Concord Mls Blvd # 105 Concord NC 28027,(704) 979-1900,https://www.cinnabon.com,35.37079546,-80.71721201,Accessible
Crumbl Cookies,8128 Renaissance Pkwy # 113 Durham NC 27713,(984) 666-1671,https://www.crumblcookies.com,35.90331348,-78.95089744,Accessible
Duck Donuts,8323 Creedmoor Rd Raleigh NC 27613,(919) 626-8719,https://www.duckdonuts.com,35.90027448,-78.68109087,Accessible
Apple Annie's Bake Shop,837 S Kerr Ave Wilmington NC 28403,(910) 799-9023,https://www.appleanniesbakeshop.com,34.22149887,-77.8862228,Accessible
Geraldine's Bakery,840 Merrimon Ave Asheville NC 28804,(828) 252-9330,https://www.geraldinesbakeryavl.com,35.62753178,-82.55298345,Accessible
Ketchie Creek Bakery & Cafe,844 Valley Rd Mocksville NC 27028,(336) 751-9147,https://www.ketchiecreekbakery.com,35.90403533,-80.57840481,Accessible
Gigi's Cupcakes,8521 Brier Creek Pkwy # 105 Raleigh NC 27617,(919) 251-8336,https://www.gigiscupcakesusa.com,35.90670821,-78.78578323,Accessible
Crumbl Cookies,8531 Brier Creek Pkwy # 115 Raleigh NC 27617,(984) 201-1194,https://www.crumblcookies.com,35.90663918,-78.78579734,Accessible
Cosmic Cookie,8535 Hankins Rd # F Charlotte NC 28269,(704) 910-6549,https://www.cosmiccookiebakery.com,35.33968375,-80.83303731,Accessible
City Bakery,88 Charlotte St Asheville NC 28801,(828) 254-4289,https://www.citybakery.net,35.60262417,-82.54683955,Accessible
Down For Doughnuts,880 E Iredell Ave Mooresville NC 28115,(980) 444-2660,https://www.downfordoughnuts.com,35.57920607,-80.79438908,Accessible
Great Harvest Bread,8801 Lead Mine Rd # 119 Raleigh NC 27615,(919) 845-8122,https://www.greatharvest.com,35.90484819,-78.65797814,Accessible
Nothing Bundt Cakes,8830 Lindholm Dr # 110 Huntersville NC 28078,(704) 894-8535,https://www.nothingbundtcakes.com,35.44412056,-80.87852021,Accessible
Nothing Bundt Cakes,8905 Christenbury Pkwy # 10 Concord NC 28027,(704) 594-9777,https://www.nothingbundtcakes.com,35.37597241,-80.73246042,Accessible
Crumbl Cookies,8915 Christenbury Pkwy # 20 Concord NC 28027,(980) 825-7022,https://www.crumblcookies.com,35.37611315,-80.73255389,Accessible
Havana Carolina Bakery,900 Cloverleaf Plz Kannapolis NC 28083,(980) 777-8903,https://www.havanacarolinacafe.net,35.4510112,-80.60768879,Accessible
Batch House,901 Berryhill Rd Charlotte NC 28208,(828) 000-1111,https://www.thebatchmaker.com,35.23986345,-80.87148112,Accessible
Villani's Bakery,901 Pecan Ave Charlotte NC 28205,(704) 334-0550,https://www.villanisbakery.com,35.21665789,-80.815113,Accessible
Great Harvest Bread,901 S Kings Dr # 140A Charlotte NC 28204,(704) 333-0431,https://www.greatharvest.com,35.2066758,-80.83598678,Accessible
Cake Town Bakery,903 N Smithfield Rd Knightdale NC 27545,(919) 373-8226,https://www.caketownnc.com,35.79632864,-78.48749477,Accessible
Dom Bakeries,908 W D St North Wilkesboro NC 28659,(517) 902-7906,https://www.dombakeries.com,36.16125928,-81.14773481,Accessible
Two Scoops Creamery Plaza Mdwd,913 Central Ave Charlotte NC 28204,(704) 900-5792,https://www.twoscoopscreamery.com,35.22164358,-80.82292055,Accessible
Brownie Bakery,913 John Small Ave Washington NC 27889,(252) 946-4011,https://www.browniebaker.com,35.5467257,-77.04175313,Accessible
Insomnia Cookies,9211 N Tryon St # 4 Charlotte NC 28262,(704) 313-1835,https://www.insomniacookies.com,35.31045371,-80.7455513,Accessible
Creekside Creations LLC,949 Creekside Dr Maggie Valley NC 28751,(828) 000-1111,https://www.creeksidecreationsbakery.com,35.52537491,-83.05946283,Accessible
Nothing Bundt Cakes,9704 Rea Rd # A Waxhaw NC 28173,(704) 845-2253,https://www.nothingbundtcakes.com,35.01558694,-80.80217049,Accessible
Sweet Boutique Bakery,9814 Zackery Ave Charlotte NC 28277,(704) 595-7154,https://www.sweetboutiquebakery.net,35.02996875,-80.83102777,Accessible
Duck Donuts,9931 Rose Commons Dr # C Huntersville NC 28078,(704) 727-5150,https://www.duckdonuts.com,35.40869436,-80.86250649,Accessible
Happy Cakes Cupcakery,9958 Chapel Hill Rd Morrisville NC 27560,(919) 694-5085,https://www.thehappycakescupcakery.com,35.81442786,-78.82100193,Accessible
Silver's Sweets,Glenlea Commons Dr Charlotte NC 28216,(704) 625-0089,https://www.silverssweets.com,35.30646355,-80.86244156,Accessible